{
    "links": {
        "self": "http://www.neowsapp.com/rest/v1/neo/3655756?api_key=iIulBulltgU6a56xZRHN4H3l9WmuAYTsLGpBGhQ2"
    },
    "id": "3655756",
    "neo_reference_id": "3655756",
    "name": "(2014 AB17)",
    "designation": "2014 AB17",
    "nasa_jpl_url": "http://ssd.jpl.nasa.gov/sbdb.cgi?sstr=3655756",
    "absolute_magnitude_h": 23.0,
    "estimated_diameter": {
        "kilometers": {
            "estimated_diameter_min": 0.0667659413,
            "estimated_diameter_max": 0.1492931834
        },
        "meters": {
            "estimated_diameter_min": 66.7659413495,
            "estimated_diameter_max": 149.2931834393
        },
        "miles": {
            "estimated_diameter_min": 0.0414864197,
            "estimated_diameter_max": 0.0927664547
        },
        "feet": {
            "estimated_diameter_min": 219.0483710172,
            "estimated_diameter_max": 489.807047955
        }
    },
    "is_potentially_hazardous_asteroid": false,
    "close_approach_data": [
        {
            "close_approach_date": "2014-01-15",
            "close_approach_date_full": "2014-Jan-15 14:56",
            "epoch_date_close_approach": 1389797760000,
            "relative_velocity": {
                "kilometers_per_second": "15.1431679939",
                "kilometers_per_hour": "54515.4047781232",
                "miles_per_hour": "33873.7524856066"
            },
            "miss_distance": {
                "astronomical": "0.0471395798",
                "lunar": "18.3372965422",
                "kilometers": "7051980.730775026",
                "miles": "4381897.6348103188"
            },
            "orbiting_body": "Earth"
        },
        {
            "close_approach_date": "2014-03-02",
            "close_approach_date_full": "2014-Mar-02 11:37",
            "epoch_date_close_approach": 1393760220000,
            "relative_velocity": {
                "kilometers_per_second": "9.7808131176",
                "kilometers_per_hour": "35210.9272234782",
                "miles_per_hour": "21878.7008628329"
            },
            "miss_distance": {
                "astronomical": "0.0890135035",
                "lunar": "34.6262528615",
                "kilometers": "13316230.524837545",
                "miles": "8274321.962726321"
            },
            "orbiting_body": "Venus"
        }
    ],
    "orbital_data": {
        "orbit_id": "11",
        "orbit_determination_date": "2017-04-06 08:42:59",
        "first_observation_date": "2014-01-05",
        "last_observation_date": "2014-01-12",
        "data_arc_in_days": 7,
        "observations_used": 102,
        "orbit_uncertainty": "8",
        "minimum_orbit_intersection": ".0467957",
        "jupiter_tisserand_invariant": "3.644",
        "epoch_osculation": "2456667.5",
        "eccentricity": ".5992651685843551",
        "semi_major_axis": "1.949643023577379",
        "inclination": "5.683804829439019",
        "ascending_node_longitude": "143.6603635256764",
        "orbital_period": "994.3312230337837",
        "perihelion_distance": ".7812898683739693",
        "perihelion_argument": "33.63449307061946",
        "aphelion_distance": "3.117996178780789",
        "perihelion_time": "2456713.195835551115",
        "mean_anomaly": "343.4557133304035",
        "mean_motion": ".3620523942732195",
        "equinox": "J2000",
        "orbit_class": {
            "orbit_class_type": "APO",
            "orbit_class_description": "Near-Earth asteroid orbits which cross the Earth’s orbit similar to that of 1862 Apollo",
            "orbit_class_range": "a (semi-major axis) > 1.0 AU; q (perihelion) < 1.017 AU"
        }
    },
    "is_sentry_object": false
}